[{"OBJECT_NAME":"STARLINK-5320","OBJECT_ID":"2023-010W","EPOCH":"2026-03-09T22:25:03.019872","MEAN_MOTION":14.98339076,"ECCENTRICITY":0.00029837,"INCLINATION":70.0011,"RA_OF_ASC_NODE":23.927,"ARG_OF_PERICENTER":267.5358,"MEAN_ANOMALY":92.5459,"EPHEMERIS_TYPE":0,"CLASSIFICATION_TYPE":"U","NORAD_CAT_ID":55289,"ELEMENT_SET_NO":999,"REV_AT_EPOCH":17330,"BSTAR":-0.00034866534,"MEAN_MOTION_DOT":-4.252e-5,"MEAN_MOTION_DDOT":0},{"OBJECT_NAME":"RROCI-2","OBJECT_ID":"2024-043J","EPOCH":"2026-03-09T21:40:56.693280","MEAN_MOTION":14.99383357,"ECCENTRICITY":0.00054118,"INCLINATION":97.8279,"RA_OF_ASC_NODE":200.9973,"ARG_OF_PERICENTER":337.3784,"MEAN_ANOMALY":22.7199,"EPHEMERIS_TYPE":0,"CLASSIFICATION_TYPE":"U","NORAD_CAT_ID":59106,"ELEMENT_SET_NO":999,"REV_AT_EPOCH":10988,"BSTAR":0.00035067832,"MEAN_MOTION_DOT":4.232e-5,"MEAN_MOTION_DDOT":0}]
